[{"OBJECT_NAME":"IRIDIUM 110","OBJECT_ID":"2018-047F","EPOCH":"2026-03-09T16:39:54.331776","MEAN_MOTION":14.34217414,"ECCENTRICITY":0.00023666,"INCLINATION":86.3979,"RA_OF_ASC_NODE":130.0337,"ARG_OF_PERICENTER":86.5409,"MEAN_ANOMALY":273.6057,"EPHEMERIS_TYPE":0,"CLASSIFICATION_TYPE":"U","NORAD_CAT_ID":43481,"ELEMENT_SET_NO":999,"REV_AT_EPOCH":40821,"BSTAR":-8.01159e-6,"MEAN_MOTION_DOT":-3.0e-8,"MEAN_MOTION_DDOT":0},{"OBJECT_NAME":"DELTA 1 DEB","OBJECT_ID":"1975-004AW","EPOCH":"2026-03-09T14:40:22.120896","MEAN_MOTION":14.35393281,"ECCENTRICITY":0.0100277,"INCLINATION":97.6916,"RA_OF_ASC_NODE":300.3536,"ARG_OF_PERICENTER":234.6183,"MEAN_ANOMALY":124.5605,"EPHEMERIS_TYPE":0,"CLASSIFICATION_TYPE":"U","NORAD_CAT_ID":8964,"ELEMENT_SET_NO":999,"REV_AT_EPOCH":60620,"BSTAR":0.00024478,"MEAN_MOTION_DOT":7.05e-6,"MEAN_MOTION_DDOT":0}]
